STARLINK-35969          
1 66523U 25265H   26060.05545192  .00024947  00000+0  91231-3 0  9991
2 66523  43.0022 326.6382 0001173 267.4709  92.6008 15.27605604 15795
STARLINK-35687          
1 66524U 25265J   26060.08886332  .00042731  00000+0  15520-2 0  9996
2 66524  43.0001 326.8906 0001503 264.9157  95.1523 15.27607987 15799
STARLINK-35975          
1 66525U 25265K   26060.05674246  .00024238  00000+0  88692-3 0  9996
2 66525  43.0033 326.6518 0001243 271.9034  88.1675 15.27598063 15799
STARLINK-35932          
1 66526U 25265L   26059.79262366  .00032922  00000+0  11993-2 0  9990
2 66526  43.0020 328.1068 0000096 315.5974  44.4870 15.27613921 15755
STARLINK-35935          
1 66527U 25265M   26060.13881886  .00027823  00000+0  10157-2 0  9990
2 66527  43.0006 326.3996 0003807 238.2214 121.8267 15.27611040 15807
STARLINK-35928          
1 66528U 25265N   26060.11312932  .00025598  00000+0  93586-3 0  9995
2 66528  42.9991 326.2099 0001581 247.5986 112.4698 15.27602885 15809
STARLINK-35933          
1 66529U 25265P   26060.08501130  .00026287  00000+0  96074-3 0  9993
2 66529  42.9994 326.8589 0001233 264.7627  95.3084 15.27601358 15790
STARLINK-35961          
1 66530U 25265Q   26060.13626095  .00026301  00000+0  96101-3 0  9997
2 66530  43.0034 326.3871 0001288 283.6605  76.4103 15.27609207 15809
STARLINK-35960          
1 66531U 25265R   26060.16566998  .00037478  00000+0  13635-2 0  9993
2 66531  43.0003 325.7444 0001292 258.5181 101.5525 15.27603765 15812
STARLINK-35914          
1 66532U 25265S   26060.13754361  .00026599  00000+0  97177-3 0  9990
2 66532  43.0021 326.3942 0001477 277.6443  82.4241 15.27608446 15803
STARLINK-35707          
1 66533U 25265T   26060.12597990  .00014996  00000+0  55305-3 0  9998
2 66533  43.0024 326.3090 0001664 252.5801 107.4868 15.27596957 15805
STARLINK-35976          
1 66534U 25265U   26060.08757745  .00023774  00000+0  87013-3 0  9995
2 66534  43.0006 326.8780 0001338 267.3918  92.6780 15.27600291 15791
STARLINK-35514          
1 66535U 25265V   26060.08372571  .00023595  00000+0  86376-3 0  9998
2 66535  42.9998 326.8440 0001356 254.5336 105.5365 15.27597362 15792
STARLINK-35640          
1 66536U 25265W   26060.13496981  .00040631  00000+0  14771-2 0  9996
2 66536  43.0046 326.3713 0001623 256.0113 104.0559 15.27598350 15803
STARLINK-35582          
1 66537U 25265X   26060.12726312  .00039745  00000+0  14450-2 0  9998
2 66537  43.0034 326.3152 0001679 268.4913  91.5746 15.27604716 15806
STARLINK-35577          
1 66538U 25265Y   26060.05802259  .00040552  00000+0  14739-2 0  9994
2 66538  43.0040 326.6533 0001554 260.0601 100.0075 15.27605524 15791
STARLINK-35697          
1 66539U 25265Z   26060.11697780  .00030613  00000+0  11167-2 0  9992
2 66539  43.0038 326.2364 0002800 265.5092  94.5440 15.27597862 15806
STARLINK-35818          
1 66540U 25265AA  26060.09271362  .00039200  00000+0  14250-2 0  9992
2 66540  43.0014 326.9150 0001363 275.3183  84.7514 15.27614023 15795
STARLINK-35796          
1 66541U 25265AB  26060.06829772  .00027854  00000+0  10171-2 0  9994
2 66541  43.0049 326.7291 0002556 253.4345 106.6226 15.27605240 15795
STARLINK-35833          
1 66542U 25265AC  26060.09528906  .00025706  00000+0  94012-3 0  9994
2 66542  43.0035 326.9384 0002024 269.4239  90.6381 15.27589465 15799
STARLINK-35315          
1 66543U 25265AD  26060.07730153  .00028754  00000+0  10495-2 0  9990
2 66543  43.0005 326.7948 0000990 303.3741  56.7016 15.27605272 15790
STARLINK-35728          
1 66544U 25265AE  26060.10927464  .00040367  00000+0  14672-2 0  9993
2 66544  43.0023 326.1736 0001487 262.7620  97.3062 15.27606870 15805
STARLINK-35699          
1 66557U 25268A   26060.24693339  .00024959  00000+0  91292-3 0  9999
2 66557  43.0026  35.1735 0001213 269.0935  90.9778 15.27599632 16669
STARLINK-35695          
1 66558U 25268B   26060.30846754  .00026092  00000+0  95382-3 0  9992
2 66558  43.0031  34.7743 0001373 264.5195  95.5500 15.27597222 16673
STARLINK-35419          
1 66559U 25268C   26060.28662197  .00038596  00000+0  14036-2 0  9995
2 66559  43.0012  34.5996 0001487 257.9001 102.1684 15.27606383 16676
STARLINK-35411          
1 66560U 25268D   26060.34944965  .00029184  00000+0  10650-2 0  9991
2 66560  43.0010  34.2117 0001448 276.3806  83.6881 15.27606768 16683
STARLINK-35305          
1 66561U 25268E   26060.27633852  .00022074  00000+0  80970-3 0  9998
2 66561  42.9985  34.5223 0001290 263.8771  96.1933 15.27562655 16673
STARLINK-35579          
1 66562U 25268F   26060.34558280  .00039715  00000+0  14439-2 0  9994
2 66562  42.9993  34.1833 0001432 259.3880 100.6811 15.27605061 16681
STARLINK-35437          
1 66563U 25268G   26060.33787089  .00030886  00000+0  11268-2 0  9992
2 66563  43.0008  34.1270 0001305 275.1117  84.9586 15.27592961 16681
STARLINK-35358          
1 66564U 25268H   26060.00708849  .00028066  00000+0  10251-2 0  9992
2 66564  42.9984  35.9420 0002000 277.5720  82.4904 15.27593633 16637
