OBJECT_NAME,OBJECT_ID,EPOCH,MEAN_MOTION,ECCENTRICITY,INCLINATION,RA_OF_ASC_NODE,ARG_OF_PERICENTER,MEAN_ANOMALY,EPHEMERIS_TYPE,CLASSIFICATION_TYPE,NORAD_CAT_ID,ELEMENT_SET_NO,REV_AT_EPOCH,BSTAR,MEAN_MOTION_DOT,MEAN_MOTION_DDOT
STARLINK-35969,2025-265H,2026-03-01T01:19:51.045888,15.27605604,.00011731,43.0022,326.6382,267.4709,92.6008,0,U,66523,999,1579,.91231006E-3,.24947E-3,0
STARLINK-35687,2025-265J,2026-03-01T02:07:57.790848,15.27607987,.00015037,43.0001,326.8906,264.9157,95.1523,0,U,66524,999,1579,.15520433E-2,.42731E-3,0
STARLINK-35975,2025-265K,2026-03-01T01:21:42.548544,15.27598063,.0001243,43.0033,326.6518,271.9034,88.1675,0,U,66525,999,1579,.88692207E-3,.24238E-3,0
STARLINK-35932,2025-265L,2026-02-28T19:01:22.684224,15.27613921,.00000961,43.0020,328.1068,315.5974,44.4870,0,U,66526,999,1575,.11992977E-2,.32922E-3,0
STARLINK-35935,2025-265M,2026-03-01T03:19:53.949504,15.27611040,.00038071,43.0006,326.3996,238.2214,121.8267,0,U,66527,999,1580,.10156667E-2,.27823E-3,0
STARLINK-35928,2025-265N,2026-03-01T02:42:54.373248,15.27602885,.00015811,42.9991,326.2099,247.5986,112.4698,0,U,66528,999,1580,.93585572E-3,.25598E-3,0
STARLINK-35933,2025-265P,2026-03-01T02:02:24.976320,15.27601358,.00012338,42.9994,326.8589,264.7627,95.3084,0,U,66529,999,1579,.96074367E-3,.26287E-3,0
STARLINK-35961,2025-265Q,2026-03-01T03:16:12.946080,15.27609207,.0001288,43.0034,326.3871,283.6605,76.4103,0,U,66530,999,1580,.96100709E-3,.26301E-3,0
STARLINK-35960,2025-265R,2026-03-01T03:58:33.886272,15.27603765,.0001292,43.0003,325.7444,258.5181,101.5525,0,U,66531,999,1581,.13635338E-2,.37478E-3,0
STARLINK-35914,2025-265S,2026-03-01T03:18:03.767904,15.27608446,.00014771,43.0021,326.3942,277.6443,82.4241,0,U,66532,999,1580,.97176858E-3,.26599E-3,0
STARLINK-35707,2025-265T,2026-03-01T03:01:24.663360,15.27596957,.00016648,43.0024,326.3090,252.5801,107.4868,0,U,66533,999,1580,.55305429E-3,.14996E-3,0
STARLINK-35976,2025-265U,2026-03-01T02:06:06.691680,15.27600291,.0001338,43.0006,326.8780,267.3918,92.6780,0,U,66534,999,1579,.87012795E-3,.23774E-3,0
STARLINK-35514,2025-265V,2026-03-01T02:00:33.901344,15.27597362,.00013569,42.9998,326.8440,254.5336,105.5365,0,U,66535,999,1579,.86375666E-3,.23595E-3,0
STARLINK-35640,2025-265W,2026-03-01T03:14:21.391584,15.27598350,.00016234,43.0046,326.3713,256.0113,104.0559,0,U,66536,999,1580,.14770871E-2,.40631E-3,0
STARLINK-35582,2025-265X,2026-03-01T03:03:15.533568,15.27604716,.00016793,43.0034,326.3152,268.4913,91.5746,0,U,66537,999,1580,.14449823E-2,.39745E-3,0
STARLINK-35577,2025-265Y,2026-03-01T01:23:33.151776,15.27605524,.00015543,43.0040,326.6533,260.0601,100.0075,0,U,66538,999,1579,.1473919E-2,.40552E-3,0
STARLINK-35697,2025-265Z,2026-03-01T02:48:26.881920,15.27597862,.00028,43.0038,326.2364,265.5092,94.5440,0,U,66539,999,1580,.11166863E-2,.30613E-3,0
STARLINK-35818,2025-265AA,2026-03-01T02:13:30.456768,15.27614023,.00013634,43.0014,326.9150,275.3183,84.7514,0,U,66540,999,1579,.14250035E-2,.392E-3,0
STARLINK-35796,2025-265AB,2026-03-01T01:38:20.923008,15.27605240,.00025562,43.0049,326.7291,253.4345,106.6226,0,U,66541,999,1579,.10170655E-2,.27854E-3,0
STARLINK-35833,2025-265AC,2026-03-01T02:17:12.974784,15.27589465,.00020247,43.0035,326.9384,269.4239,90.6381,0,U,66542,999,1579,.94012416E-3,.25706E-3,0
STARLINK-35315,2025-265AD,2026-03-01T01:51:18.852192,15.27605272,.00009905,43.0005,326.7948,303.3741,56.7016,0,U,66543,999,1579,.10495308E-2,.28754E-3,0
STARLINK-35728,2025-265AE,2026-03-01T02:37:21.328896,15.27606870,.00014871,43.0023,326.1736,262.7620,97.3062,0,U,66544,999,1580,.14672305E-2,.40367E-3,0
STARLINK-35699,2025-268A,2026-03-01T05:55:35.044896,15.27599632,.0001213,43.0026,35.1735,269.0935,90.9778,0,U,66557,999,1666,.91292E-3,.24959E-3,0
STARLINK-35695,2025-268B,2026-03-01T07:24:11.595456,15.27597222,.0001373,43.0031,34.7743,264.5195,95.5500,0,U,66558,999,1667,.95382E-3,.26092E-3,0
STARLINK-35419,2025-268C,2026-03-01T06:52:44.138208,15.27606383,.0001487,43.0012,34.5996,257.9001,102.1684,0,U,66559,999,1667,.14036E-2,.38596E-3,0
STARLINK-35411,2025-268D,2026-03-01T08:23:12.449760,15.27606768,.0001448,43.0010,34.2117,276.3806,83.6881,0,U,66560,999,1668,.1065E-2,.29184E-3,0
STARLINK-35305,2025-268E,2026-03-01T06:37:55.648128,15.27562655,.000129,42.9985,34.5223,263.8771,96.1933,0,U,66561,999,1667,.8097E-3,.22074E-3,0
STARLINK-35579,2025-268F,2026-03-01T08:17:38.353920,15.27605061,.0001432,42.9993,34.1833,259.3880,100.6811,0,U,66562,999,1668,.14439E-2,.39715E-3,0
STARLINK-35437,2025-268G,2026-03-01T08:06:32.044896,15.27592961,.0001305,43.0008,34.1270,275.1117,84.9586,0,U,66563,999,1668,.11268E-2,.30886E-3,0
STARLINK-35358,2025-268H,2026-03-01T00:10:12.445536,15.27593633,.0002,42.9984,35.9420,277.5720,82.4904,0,U,66564,999,1663,.10250952E-2,.28066E-3,0
